{
  "type": "FeatureCollection",
  "features": [
    {
      "type": "Feature",
      "properties": {
        "norad_id": 32393,
        "name": "COSMOS 2434 (721)",
        "group": "gnss",
        "lat": -24.89385056465516,
        "lon": 30.824993450934368,
        "alt_km": 19142.25185490191,
        "timestamp": "2025-12-21T11:31:43.096723+00:00",
        "meta_object_name": "COSMOS 2434 (721)",
        "meta_object_id": "2007-065A",
        "meta_epoch": "2025-12-20T12:03:15.367680",
        "meta_mean_motion": 2.13101459,
        "meta_eccentricity": 0.00047811,
        "meta_inclination": 64.3153,
        "meta_ra_of_asc_node": 197.9412,
        "meta_arg_of_pericenter": 71.786,
        "meta_mean_anomaly": 105.6785,
        "meta_ephemeris_type": 0,
        "meta_classification_type": "U",
        "meta_norad_cat_id": 32393,
        "meta_element_set_no": 999,
        "meta_rev_at_epoch": 13996,
        "meta_bstar": 0,
        "meta_mean_motion_dot": 1e-06,
        "meta_mean_motion_ddot": 0,
        "tle_line1": "1 32393U 07065A   25354.50226120  .00000100  00000+0  00000+0 0  9994",
        "tle_line2": "2 32393  64.3153 197.9412 0004781  71.7860 105.6785  2.13101459139962"
      },
      "geometry": {
        "type": "Point",
        "coordinates": [
          30.824993450934368,
          -24.89385056465516
        ]
      }
    },
    {
      "type": "Feature",
      "properties": {
        "norad_id": 32395,
        "name": "COSMOS 2436 (723)",
        "group": "gnss",
        "lat": -17.32669370414289,
        "lon": -170.65286236043517,
        "alt_km": 19093.142255696614,
        "timestamp": "2025-12-21T11:31:43.096735+00:00",
        "meta_object_name": "COSMOS 2436 (723)",
        "meta_object_id": "2007-065C",
        "meta_epoch": "2025-12-21T05:24:13.396320",
        "meta_mean_motion": 2.13100316,
        "meta_eccentricity": 0.0017785,
        "meta_inclination": 64.3243,
        "meta_ra_of_asc_node": 197.9873,
        "meta_arg_of_pericenter": 10.0202,
        "meta_mean_anomaly": 135.0649,
        "meta_ephemeris_type": 0,
        "meta_classification_type": "U",
        "meta_norad_cat_id": 32395,
        "meta_element_set_no": 999,
        "meta_rev_at_epoch": 13993,
        "meta_bstar": 0,
        "meta_mean_motion_dot": 9.7e-07,
        "meta_mean_motion_ddot": 0,
        "tle_line1": "1 32395U 07065C   25355.22515505  .00000097  00000+0  00000+0 0  9999",
        "tle_line2": "2 32395  64.3243 197.9873 0017785  10.0202 135.0649  2.13100316139933"
      },
      "geometry": {
        "type": "Point",
        "coordinates": [
          -170.65286236043517,
          -17.32669370414289
        ]
      }
    },
    {
      "type": "Feature",
      "properties": {
        "norad_id": 32711,
        "name": "GPS BIIRM-6 (PRN 07)",
        "group": "gnss",
        "lat": -42.71863331619915,
        "lon": 18.29828824154538,
        "alt_km": 19654.583444805667,
        "timestamp": "2025-12-21T11:31:43.096747+00:00",
        "meta_object_name": "GPS BIIRM-6 (PRN 07)",
        "meta_object_id": "2008-012A",
        "meta_epoch": "2025-12-19T15:41:26.858112",
        "meta_mean_motion": 2.00565937,
        "meta_eccentricity": 0.0202735,
        "meta_inclination": 54.4779,
        "meta_ra_of_asc_node": 157.0969,
        "meta_arg_of_pericenter": 245.0276,
        "meta_mean_anomaly": 112.8468,
        "meta_ephemeris_type": 0,
        "meta_classification_type": "U",
        "meta_norad_cat_id": 32711,
        "meta_element_set_no": 999,
        "meta_rev_at_epoch": 13015,
        "meta_bstar": 0,
        "meta_mean_motion_dot": 6.7e-07,
        "meta_mean_motion_ddot": 0,
        "tle_line1": "1 32711U 08012A   25353.65378308  .00000067  00000+0  00000+0 0  9994",
        "tle_line2": "2 32711  54.4779 157.0969 0202735 245.0276 112.8468  2.00565937130151"
      },
      "geometry": {
        "type": "Point",
        "coordinates": [
          18.29828824154538,
          -42.71863331619915
        ]
      }
    },
    {
      "type": "Feature",
      "properties": {
        "norad_id": 35752,
        "name": "GPS BIIRM-8 (PRN 05)",
        "group": "gnss",
        "lat": -53.872261884454694,
        "lon": -78.49735190586459,
        "alt_km": 20324.775559463535,
        "timestamp": "2025-12-21T11:31:43.096758+00:00",
        "meta_object_name": "GPS BIIRM-8 (PRN 05)",
        "meta_object_id": "2009-043A",
        "meta_epoch": "2025-12-20T02:09:52.509312",
        "meta_mean_motion": 2.00565329,
        "meta_eccentricity": 0.00516467,
        "meta_inclination": 56.096,
        "meta_ra_of_asc_node": 34.4932,
        "meta_arg_of_pericenter": 81.7821,
        "meta_mean_anomaly": 251.1308,
        "meta_ephemeris_type": 0,
        "meta_classification_type": "U",
        "meta_norad_cat_id": 35752,
        "meta_element_set_no": 999,
        "meta_rev_at_epoch": 11976,
        "meta_bstar": 0,
        "meta_mean_motion_dot": -6.1e-07,
        "meta_mean_motion_ddot": 0,
        "tle_line1": "1 35752U 09043A   25354.09019108 -.00000061  00000+0  00000+0 0  9991",
        "tle_line2": "2 35752  56.0960  34.4932 0051646  81.7821 251.1308  2.00565329119760"
      },
      "geometry": {
        "type": "Point",
        "coordinates": [
          -78.49735190586459,
          -53.872261884454694
        ]
      }
    },
    {
      "type": "Feature",
      "properties": {
        "norad_id": 36111,
        "name": "COSMOS 2456 (730)",
        "group": "gnss",
        "lat": 4.483519044847246,
        "lon": 79.15560148638198,
        "alt_km": 19126.57603432473,
        "timestamp": "2025-12-21T11:31:43.096770+00:00",
        "meta_object_name": "COSMOS 2456 (730)",
        "meta_object_id": "2009-070A",
        "meta_epoch": "2025-12-20T03:13:18.516576",
        "meta_mean_motion": 2.13103685,
        "meta_eccentricity": 0.00033011,
        "meta_inclination": 64.904,
        "meta_ra_of_asc_node": 77.0852,
        "meta_arg_of_pericenter": 296.9564,
        "meta_mean_anomaly": 115.2996,
        "meta_ephemeris_type": 0,
        "meta_classification_type": "U",
        "meta_norad_cat_id": 36111,
        "meta_element_set_no": 999,
        "meta_rev_at_epoch": 12461,
        "meta_bstar": 0,
        "meta_mean_motion_dot": -2.2e-07,
        "meta_mean_motion_ddot": 0,
        "tle_line1": "1 36111U 09070A   25354.13424209 -.00000022  00000+0  00000+0 0  9995",
        "tle_line2": "2 36111  64.9040  77.0852 0003301 296.9564 115.2996  2.13103685124610"
      },
      "geometry": {
        "type": "Point",
        "coordinates": [
          79.15560148638198,
          4.483519044847246
        ]
      }
    },
    {
      "type": "Feature",
      "properties": {
        "norad_id": 36112,
        "name": "COSMOS 2457 (733)",
        "group": "gnss",
        "lat": 40.65251820630473,
        "lon": -126.80206325136928,
        "alt_km": 19115.101027330573,
        "timestamp": "2025-12-21T11:31:43.096782+00:00",
        "meta_object_name": "COSMOS 2457 (733)",
        "meta_object_id": "2009-070B",
        "meta_epoch": "2025-12-21T01:50:33.569952",
        "meta_mean_motion": 2.13101099,
        "meta_eccentricity": 0.0004535,
        "meta_inclination": 64.8901,
        "meta_ra_of_asc_node": 76.9001,
        "meta_arg_of_pericenter": 162.2695,
        "meta_mean_anomaly": 22.1351,
        "meta_ephemeris_type": 0,
        "meta_classification_type": "U",
        "meta_norad_cat_id": 36112,
        "meta_element_set_no": 999,
        "meta_rev_at_epoch": 12463,
        "meta_bstar": 0,
        "meta_mean_motion_dot": -1.4e-07,
        "meta_mean_motion_ddot": 0,
        "tle_line1": "1 36112U 09070B   25355.07677743 -.00000014  00000+0  00000+0 0  9994",
        "tle_line2": "2 36112  64.8901  76.9001 0004535 162.2695  22.1351  2.13101099124630"
      },
      "geometry": {
        "type": "Point",
        "coordinates": [
          -126.80206325136928,
          40.65251820630473
        ]
      }
    },
    {
      "type": "Feature",
      "properties": {
        "norad_id": 36402,
        "name": "COSMOS 2460 (732)",
        "group": "gnss",
        "lat": 41.165896946784784,
        "lon": 117.00336164371198,
        "alt_km": 19130.229514560957,
        "timestamp": "2025-12-21T11:31:43.096794+00:00",
        "meta_object_name": "COSMOS 2460 (732)",
        "meta_object_id": "2010-007C",
        "meta_epoch": "2025-12-19T13:42:43.098624",
        "meta_mean_motion": 2.131063,
        "meta_eccentricity": 0.0002543,
        "meta_inclination": 65.526,
        "meta_ra_of_asc_node": 320.5423,
        "meta_arg_of_pericenter": 279.9868,
        "meta_mean_anomaly": 189.087,
        "meta_ephemeris_type": 0,
        "meta_classification_type": "U",
        "meta_norad_cat_id": 36402,
        "meta_element_set_no": 999,
        "meta_rev_at_epoch": 12290,
        "meta_bstar": 0,
        "meta_mean_motion_dot": -5.7e-07,
        "meta_mean_motion_ddot": 0,
        "tle_line1": "1 36402U 10007C   25353.57133216 -.00000057  00000+0  00000+0 0  9990",
        "tle_line2": "2 36402  65.5260 320.5423 0002543 279.9868 189.0870  2.13106300122906"
      },
      "geometry": {
        "type": "Point",
        "coordinates": [
          117.00336164371198,
          41.165896946784784
        ]
      }
    }
  ]
}